{"type":"FeatureCollection","features":[{"type":"Feature","properties":{"name":"Chattogram"},"geometry":{"type":"MultiPolygon","coordinates":[[[[92.314,20.666],[92.3,20.675],[92.286,20.656],[92.305,20.621],[92.314,20.666]]],[[[91.89,21.791],[91.901,21.879],[91.89,21.921],[91.874,21.93],[91.831,21.916],[91.853,21.873],[91.839,21.778],[91.846,21.759],[91.857,21.754],[91.89,21.791]]],[[[91.236,22.65],[91.245,22.581],[91.312,22.546],[91.309,22.62],[91.236,22.65]]],[[[91.467,22.601],[91.429,22.646],[91.336,22.671],[91.396,22.598],[91.402,22.531],[91.387,22.46],[91.478,22.404],[91.513,22.345],[91.57,22.39],[91.543,22.507],[91.467,22.601]]],[[[91.054,22.723],[91.045,22.694],[91.075,22.649],[91.073,22.596],[91.1,22.57],[91.155,22.568],[91.189,22.611],[91.166,22.663],[91.107,22.711],[91.054,22.723]]],[[[91.311,22.691],[91.305,22.712],[91.246,22.742],[91.25,22.752],[91.197,22.765],[91.191,22.743],[91.243,22.708],[91.286,22.686],[91.311,22.691]]],[[[91.318,22.766],[91.346,22.733],[91.375,22.719],[91.381,22.735],[91.35,22.765],[91.318,22.766]]],[[[91.307,24.207],[91.31,24.231],[91.258,24.244],[91.181,24.243],[91.136,24.234],[91.094,24.201],[91.06,24.207],[91.039,24.185],[91.066,24.113],[91.061,24.08],[91.001,24.034],[90.992,23.965],[90.968,23.951],[90.918,23.874],[90.771,23.851],[90.759,23.791],[90.737,23.768],[90.734,23.708],[90.676,23.67],[90.666,23.646],[90.709,23.525],[90.687,23.503],[90.626,23.494],[90.595,23.417],[90.601,23.38],[90.636,23.347],[90.654,23.31],[90.66,23.256],[90.577,23.139],[90.586,23.061],[90.676,22.963],[90.713,22.945],[90.786,22.869],[90.82,22.754],[90.939,22.566],[91.014,22.504],[91.041,22.449],[91.06,22.329],[91.021,22.12],[91.037,22.094],[91.122,22.111],[91.15,22.176],[91.141,22.386],[91.134,22.428],[91.109,22.473],[91.02,22.548],[91.047,22.633],[90.983,22.828],[90.986,22.854],[91.067,22.797],[91.137,22.805],[91.173,22.838],[91.324,22.779],[91.353,22.817],[91.377,22.825],[91.414,22.773],[91.481,22.771],[91.527,22.697],[91.667,22.546],[91.752,22.377],[91.759,22.306],[91.915,22.05],[91.935,21.916],[91.925,21.792],[91.897,21.708],[91.909,21.503],[92.009,21.499],[92.002,21.381],[92.051,21.262],[92.069,21.161],[92.203,20.973],[92.236,20.88],[92.358,20.728],[92.299,20.955],[92.272,21.004],[92.286,21.038],[92.28,21.077],[92.208,21.163],[92.213,21.189],[92.232,21.206],[92.223,21.328],[92.266,21.367],[92.286,21.418],[92.331,21.416],[92.351,21.467],[92.375,21.473],[92.458,21.354],[92.501,21.353],[92.548,21.371],[92.567,21.362],[92.573,21.302],[92.606,21.246],[92.641,21.248],[92.691,21.303],[92.624,21.517],[92.609,21.768],[92.648,21.894],[92.574,22.143],[92.606,22.125],[92.612,22.218],[92.538,22.556],[92.531,22.732],[92.467,22.784],[92.47,22.86],[92.458,22.896],[92.391,22.953],[92.398,23.077],[92.367,23.145],[92.362,23.249],[92.401,23.311],[92.373,23.338],[92.387,23.382],[92.324,23.481],[92.313,23.579],[92.284,23.655],[92.292,23.712],[92.266,23.745],[92.239,23.713],[92.223,23.659],[92.219,23.724],[92.208,23.741],[92.172,23.755],[92.106,23.719],[92.074,23.66],[92.019,23.677],[91.986,23.743],[91.957,23.745],[91.926,23.72],[91.968,23.544],[91.954,23.445],[91.884,23.45],[91.784,23.292],[91.785,23.236],[91.822,23.166],[91.813,23.107],[91.736,23.014],[91.702,22.99],[91.639,22.975],[91.618,22.987],[91.586,22.972],[91.565,22.981],[91.541,23.012],[91.516,23.162],[91.522,23.189],[91.444,23.267],[91.409,23.27],[91.401,23.251],[91.392,23.161],[91.409,23.082],[91.383,23.088],[91.355,23.115],[91.334,23.16],[91.328,23.251],[91.293,23.365],[91.239,23.49],[91.19,23.548],[91.164,23.609],[91.158,23.642],[91.195,23.67],[91.192,23.714],[91.173,23.746],[91.177,23.775],[91.232,23.783],[91.236,23.949],[91.295,24.003],[91.31,24.043],[91.285,24.117],[91.291,24.18],[91.307,24.207]]]]}},{"type":"Feature","properties":{"name":"Dhaka"},"geometry":{"type":"Polygon","coordinates":[[[91.215,24.244],[91.201,24.282],[91.175,24.306],[91.241,24.343],[91.228,24.382],[91.257,24.4],[91.223,24.432],[91.243,24.464],[91.222,24.486],[91.2,24.47],[91.162,24.483],[91.178,24.505],[91.236,24.533],[91.239,24.564],[91.212,24.594],[91.192,24.642],[91.154,24.623],[90.9,24.591],[90.834,24.536],[90.707,24.499],[90.615,24.508],[90.607,24.477],[90.67,24.443],[90.673,24.429],[90.651,24.363],[90.669,24.325],[90.645,24.289],[90.586,24.282],[90.549,24.319],[90.481,24.345],[90.314,24.284],[90.272,24.309],[90.259,24.338],[90.259,24.413],[90.233,24.466],[90.248,24.477],[90.248,24.501],[90.206,24.524],[90.144,24.594],[90.14,24.613],[90.154,24.637],[90.134,24.735],[90.088,24.792],[90.048,24.79],[89.99,24.727],[89.935,24.765],[89.895,24.75],[89.875,24.649],[89.843,24.624],[89.832,24.598],[89.748,24.544],[89.74,24.526],[89.754,24.492],[89.737,24.436],[89.761,24.408],[89.761,24.359],[89.798,24.28],[89.809,24.074],[89.8,24.03],[89.718,23.974],[89.759,23.927],[89.787,23.86],[89.794,23.765],[89.641,23.771],[89.576,23.821],[89.547,23.796],[89.505,23.79],[89.464,23.806],[89.437,23.859],[89.408,23.879],[89.337,23.895],[89.337,23.904],[89.255,23.912],[89.259,23.891],[89.313,23.864],[89.327,23.829],[89.306,23.726],[89.33,23.689],[89.381,23.663],[89.424,23.676],[89.508,23.544],[89.503,23.5],[89.587,23.47],[89.594,23.42],[89.582,23.361],[89.613,23.296],[89.654,23.276],[89.631,23.235],[89.675,23.225],[89.693,23.207],[89.69,23.172],[89.74,23.17],[89.752,23.141],[89.682,23.12],[89.678,23.109],[89.737,23.055],[89.752,23.014],[89.779,22.997],[89.813,22.945],[89.817,22.875],[89.856,22.844],[89.905,22.849],[89.945,22.834],[90.042,22.911],[90.062,22.958],[90.12,23.024],[90.174,23.045],[90.211,23.037],[90.229,22.99],[90.34,22.977],[90.447,23.039],[90.498,23.092],[90.53,23.084],[90.56,23.043],[90.59,23.057],[90.577,23.139],[90.66,23.256],[90.654,23.31],[90.636,23.347],[90.601,23.38],[90.595,23.417],[90.626,23.494],[90.687,23.503],[90.709,23.525],[90.666,23.646],[90.676,23.67],[90.734,23.708],[90.737,23.768],[90.759,23.791],[90.771,23.851],[90.918,23.874],[90.968,23.951],[90.992,23.965],[91.001,24.034],[91.061,24.08],[91.066,24.113],[91.039,24.185],[91.06,24.207],[91.094,24.201],[91.136,24.234],[91.215,24.244]]]}},{"type":"Feature","properties":{"name":"Mymensingh"},"geometry":{"type":"Polygon","coordinates":[[[91.194,24.64],[91.236,24.658],[91.26,24.693],[91.176,24.758],[91.217,24.817],[91.159,24.817],[91.137,24.87],[91.003,24.911],[90.967,25.011],[90.986,25.115],[90.977,25.172],[90.947,25.16],[90.78,25.185],[90.69,25.17],[90.552,25.177],[90.385,25.168],[90.129,25.238],[89.932,25.319],[89.857,25.302],[89.831,25.311],[89.829,25.354],[89.79,25.391],[89.766,25.368],[89.779,25.298],[89.773,25.232],[89.721,25.193],[89.685,25.135],[89.661,24.983],[89.698,24.886],[89.689,24.838],[89.754,24.813],[89.799,24.766],[89.809,24.736],[89.818,24.694],[89.797,24.652],[89.799,24.579],[89.832,24.598],[89.843,24.624],[89.875,24.649],[89.895,24.75],[89.935,24.765],[89.99,24.727],[90.048,24.79],[90.088,24.792],[90.134,24.735],[90.154,24.637],[90.14,24.613],[90.144,24.594],[90.206,24.524],[90.248,24.501],[90.248,24.477],[90.233,24.466],[90.259,24.413],[90.259,24.338],[90.272,24.309],[90.314,24.284],[90.481,24.345],[90.549,24.319],[90.586,24.282],[90.645,24.289],[90.669,24.325],[90.651,24.363],[90.673,24.429],[90.67,24.443],[90.607,24.477],[90.615,24.508],[90.707,24.499],[90.834,24.536],[90.9,24.591],[91.025,24.601],[91.194,24.64]]]}},{"type":"Feature","properties":{"name":"Rajshahi"},"geometry":{"type":"Polygon","coordinates":[[[89.799,24.579],[89.797,24.652],[89.818,24.694],[89.809,24.736],[89.799,24.766],[89.754,24.813],[89.689,24.838],[89.698,24.886],[89.661,24.983],[89.673,25.063],[89.636,25.043],[89.551,25.029],[89.377,25.06],[89.227,25.124],[89.175,25.176],[89.182,25.217],[89.035,25.248],[88.99,25.271],[88.942,25.255],[88.933,25.183],[88.922,25.176],[88.843,25.201],[88.781,25.178],[88.696,25.209],[88.597,25.201],[88.579,25.176],[88.536,25.18],[88.503,25.207],[88.448,25.193],[88.458,25.16],[88.429,25.128],[88.438,25.079],[88.419,25.072],[88.436,25.023],[88.408,25.008],[88.387,24.958],[88.333,24.938],[88.333,24.875],[88.297,24.869],[88.262,24.886],[88.225,24.947],[88.175,24.963],[88.119,24.919],[88.144,24.902],[88.161,24.866],[88.157,24.846],[88.102,24.813],[88.089,24.783],[88.068,24.775],[88.05,24.72],[88.021,24.685],[88.097,24.59],[88.097,24.539],[88.188,24.469],[88.293,24.454],[88.532,24.315],[88.587,24.324],[88.628,24.303],[88.668,24.336],[88.707,24.31],[88.73,24.266],[88.711,24.188],[88.753,24.183],[88.807,24.132],[88.869,24.122],[88.974,24.13],[89.091,23.964],[89.185,23.932],[89.197,23.932],[89.208,23.966],[89.254,23.956],[89.255,23.912],[89.337,23.904],[89.337,23.895],[89.408,23.879],[89.437,23.859],[89.464,23.806],[89.505,23.79],[89.547,23.796],[89.576,23.821],[89.641,23.771],[89.732,23.76],[89.794,23.765],[89.787,23.86],[89.759,23.927],[89.718,23.974],[89.8,24.03],[89.809,24.074],[89.798,24.28],[89.761,24.359],[89.761,24.408],[89.737,24.436],[89.754,24.492],[89.74,24.526],[89.748,24.544],[89.799,24.579]]]}},{"type":"Feature","properties":{"name":"Rangpur"},"geometry":{"type":"MultiPolygon","coordinates":[[[[89.827,25.356],[89.819,25.401],[89.863,25.585],[89.852,25.61],[89.867,25.662],[89.823,25.729],[89.82,25.741],[89.847,25.767],[89.816,25.825],[89.839,25.874],[89.883,25.921],[89.822,25.952],[89.856,25.976],[89.851,25.987],[89.824,25.988],[89.809,26.022],[89.784,26.041],[89.794,26.081],[89.741,26.154],[89.675,26.149],[89.679,26.215],[89.644,26.227],[89.592,26.158],[89.59,26.092],[89.601,26.07],[89.614,26.104],[89.633,26.107],[89.642,26.056],[89.563,26.025],[89.565,25.99],[89.582,25.973],[89.577,25.95],[89.545,25.951],[89.536,25.981],[89.519,25.992],[89.459,25.996],[89.424,26.042],[89.405,26.003],[89.38,25.996],[89.25,26.058],[89.26,26.07],[89.23,26.102],[89.159,26.132],[89.133,26.168],[89.134,26.232],[89.101,26.261],[89.1,26.278],[89.146,26.305],[89.084,26.326],[89.084,26.362],[89.104,26.376],[89.083,26.389],[89.019,26.395],[88.951,26.438],[88.906,26.414],[88.888,26.399],[88.884,26.374],[88.913,26.34],[88.976,26.332],[88.971,26.286],[89.01,26.283],[89.046,26.231],[88.958,26.227],[88.912,26.268],[88.885,26.276],[88.859,26.25],[88.855,26.209],[88.847,26.209],[88.807,26.25],[88.812,26.289],[88.748,26.306],[88.747,26.34],[88.7,26.335],[88.685,26.348],[88.699,26.354],[88.69,26.387],[88.627,26.416],[88.601,26.467],[88.583,26.451],[88.585,26.433],[88.57,26.436],[88.546,26.445],[88.537,26.468],[88.52,26.468],[88.516,26.489],[88.491,26.488],[88.479,26.518],[88.426,26.528],[88.413,26.621],[88.372,26.583],[88.352,26.524],[88.325,26.496],[88.316,26.443],[88.349,26.428],[88.367,26.462],[88.405,26.454],[88.411,26.44],[88.451,26.444],[88.503,26.357],[88.48,26.342],[88.469,26.356],[88.442,26.352],[88.396,26.296],[88.349,26.288],[88.333,26.249],[88.345,26.212],[88.328,26.194],[88.258,26.17],[88.226,26.177],[88.217,26.14],[88.172,26.115],[88.15,26.077],[88.172,26.04],[88.169,26.016],[88.159,25.994],[88.119,25.986],[88.107,25.94],[88.081,25.919],[88.088,25.817],[88.102,25.798],[88.149,25.769],[88.174,25.796],[88.198,25.776],[88.214,25.778],[88.238,25.807],[88.36,25.689],[88.427,25.649],[88.438,25.586],[88.486,25.566],[88.501,25.534],[88.547,25.502],[88.606,25.502],[88.681,25.477],[88.749,25.498],[88.756,25.532],[88.782,25.518],[88.797,25.527],[88.815,25.401],[88.87,25.329],[88.958,25.306],[88.967,25.27],[89.182,25.217],[89.175,25.176],[89.227,25.124],[89.377,25.06],[89.551,25.029],[89.636,25.043],[89.672,25.063],[89.685,25.135],[89.721,25.193],[89.773,25.232],[89.779,25.298],[89.766,25.368],[89.79,25.391],[89.827,25.356]]]]}},{"type":"Feature","properties":{"name":"Sylhet"},"geometry":{"type":"Polygon","coordinates":[[[91.295,24.003],[91.368,23.992],[91.39,24.011],[91.403,24.062],[91.382,24.117],[91.401,24.134],[91.544,24.082],[91.628,24.087],[91.642,24.154],[91.635,24.209],[91.651,24.215],[91.752,24.16],[91.775,24.171],[91.758,24.231],[91.768,24.243],[91.886,24.18],[91.904,24.186],[91.926,24.22],[91.923,24.342],[91.955,24.355],[91.992,24.352],[92.013,24.367],[91.992,24.397],[92.095,24.396],[92.16,24.422],[92.131,24.531],[92.195,24.598],[92.198,24.638],[92.235,24.721],[92.283,24.775],[92.272,24.849],[92.292,24.871],[92.323,24.878],[92.477,24.892],[92.489,24.926],[92.481,24.976],[92.434,24.995],[92.431,25.026],[92.355,25.07],[92.336,25.107],[92.253,25.111],[92.087,25.213],[91.848,25.176],[91.754,25.184],[91.675,25.151],[91.591,25.179],[91.5,25.15],[91.39,25.193],[91.335,25.179],[91.276,25.216],[91.029,25.198],[90.977,25.172],[90.986,25.115],[90.967,25.011],[91.003,24.911],[91.137,24.87],[91.159,24.817],[91.217,24.817],[91.176,24.758],[91.26,24.693],[91.236,24.658],[91.194,24.64],[91.212,24.594],[91.239,24.564],[91.236,24.533],[91.178,24.505],[91.162,24.483],[91.2,24.47],[91.222,24.486],[91.243,24.464],[91.223,24.432],[91.257,24.4],[91.228,24.382],[91.241,24.343],[91.175,24.306],[91.201,24.282],[91.215,24.244],[91.31,24.231],[91.285,24.153],[91.291,24.085],[91.31,24.043],[91.295,24.003]]]}},{"type":"Feature","properties":{"name":"Khulna"},"geometry":{"type":"MultiPolygon","coordinates":[[[[89.357,21.689],[89.362,21.707],[89.348,21.731],[89.33,21.751],[89.317,21.749],[89.319,21.712],[89.357,21.689]]],[[[89.255,23.912],[89.254,23.956],[89.208,23.966],[89.197,23.932],[89.185,23.932],[89.091,23.964],[88.974,24.13],[88.869,24.122],[88.807,24.132],[88.753,24.183],[88.711,24.188],[88.699,24.136],[88.706,24.096],[88.744,24.054],[88.729,24.018],[88.746,23.925],[88.662,23.874],[88.641,23.874],[88.624,23.889],[88.592,23.869],[88.614,23.806],[88.575,23.787],[88.595,23.754],[88.573,23.709],[88.586,23.672],[88.556,23.667],[88.577,23.64],[88.64,23.603],[88.701,23.532],[88.761,23.495],[88.778,23.458],[88.741,23.412],[88.729,23.264],[88.791,23.228],[88.811,23.228],[88.811,23.25],[88.83,23.252],[88.972,23.206],[88.927,23.133],[88.873,23.11],[88.874,23.084],[88.902,23.037],[88.867,22.981],[88.867,22.946],[88.9,22.925],[88.869,22.909],[88.957,22.842],[88.921,22.775],[88.918,22.741],[88.964,22.698],[88.958,22.671],[88.935,22.648],[88.966,22.603],[88.958,22.558],[88.981,22.535],[89.006,22.468],[88.994,22.361],[89.008,22.294],[89.085,22.207],[89.096,22.157],[89.036,22.094],[89.098,21.987],[89.098,21.897],[89.149,21.787],[89.203,21.778],[89.216,21.763],[89.214,21.728],[89.24,21.698],[89.204,21.654],[89.225,21.623],[89.3,21.643],[89.298,21.76],[89.34,21.893],[89.376,21.897],[89.346,21.819],[89.408,21.705],[89.451,21.723],[89.494,21.791],[89.455,21.835],[89.511,21.913],[89.535,21.996],[89.556,21.99],[89.562,21.931],[89.545,21.775],[89.584,21.699],[89.625,21.707],[89.605,21.751],[89.7,21.753],[89.711,21.773],[89.67,21.825],[89.809,21.815],[89.852,21.825],[89.874,21.859],[89.865,22.085],[89.896,22.109],[89.9,22.229],[89.875,22.283],[89.91,22.336],[89.905,22.384],[89.919,22.422],[89.961,22.463],[89.942,22.493],[89.981,22.538],[89.961,22.604],[89.958,22.674],[89.896,22.711],[89.94,22.766],[89.946,22.834],[89.905,22.849],[89.856,22.844],[89.817,22.875],[89.813,22.945],[89.779,22.997],[89.752,23.014],[89.737,23.055],[89.678,23.109],[89.682,23.12],[89.752,23.141],[89.74,23.17],[89.69,23.172],[89.693,23.207],[89.675,23.225],[89.631,23.235],[89.654,23.276],[89.613,23.296],[89.582,23.361],[89.594,23.42],[89.587,23.47],[89.503,23.5],[89.508,23.544],[89.424,23.676],[89.381,23.663],[89.33,23.689],[89.306,23.726],[89.327,23.829],[89.313,23.864],[89.259,23.891],[89.255,23.912]]]]}},{"type":"Feature","properties":{"name":"Barishal"},"geometry":{"type":"MultiPolygon","coordinates":[[[[90.551,21.847],[90.572,21.885],[90.558,21.948],[90.509,21.877],[90.519,21.852],[90.551,21.847]]],[[[90.662,21.905],[90.663,21.93],[90.645,21.949],[90.623,21.916],[90.652,21.899],[90.662,21.905]]],[[[90.719,21.959],[90.717,21.978],[90.694,21.982],[90.689,21.964],[90.719,21.959]]],[[[90.468,21.934],[90.475,21.995],[90.464,22.026],[90.397,22.06],[90.351,21.957],[90.317,21.837],[90.324,21.819],[90.344,21.83],[90.375,21.916],[90.435,21.901],[90.468,21.934]]],[[[90.521,21.958],[90.565,22.016],[90.561,22.054],[90.544,22.065],[90.507,22.036],[90.512,21.956],[90.521,21.958]]],[[[90.963,22.167],[90.959,22.235],[90.99,22.33],[90.97,22.36],[90.922,22.187],[90.95,22.131],[90.961,22.13],[90.963,22.167]]],[[[90.637,21.997],[90.778,22.089],[90.833,22.159],[90.838,22.256],[90.869,22.342],[90.866,22.392],[90.891,22.487],[90.845,22.529],[90.835,22.562],[90.775,22.616],[90.727,22.787],[90.662,22.78],[90.601,22.729],[90.568,22.66],[90.579,22.627],[90.628,22.564],[90.676,22.399],[90.669,22.227],[90.603,22.153],[90.597,22.126],[90.623,22.09],[90.609,22.045],[90.618,22.002],[90.637,21.997]]],[[[89.946,22.834],[89.94,22.766],[89.896,22.711],[89.958,22.674],[89.961,22.604],[89.981,22.538],[89.942,22.493],[89.961,22.463],[89.919,22.422],[89.905,22.384],[89.91,22.336],[89.875,22.283],[89.919,22.172],[89.93,22.064],[89.958,21.996],[89.987,21.992],[89.989,22.048],[90.015,22.079],[90.048,22.087],[90.018,22.01],[90.022,21.995],[90.077,21.977],[90.083,21.962],[90.026,21.935],[90.027,21.892],[90.043,21.864],[90.03,21.842],[90.091,21.825],[90.142,21.793],[90.187,21.788],[90.268,21.822],[90.271,21.877],[90.323,21.941],[90.33,22.027],[90.39,22.094],[90.514,22.076],[90.559,22.11],[90.557,22.145],[90.647,22.384],[90.642,22.436],[90.589,22.459],[90.589,22.535],[90.524,22.585],[90.501,22.676],[90.506,22.7],[90.533,22.707],[90.679,22.836],[90.681,22.86],[90.673,22.885],[90.507,22.964],[90.415,23.027],[90.34,22.977],[90.282,22.977],[90.229,22.99],[90.211,23.037],[90.174,23.045],[90.12,23.024],[90.062,22.958],[90.042,22.911],[89.946,22.834]]]]}}]}